[{"OBJECT_NAME":"STARLINK-31281","OBJECT_ID":"2024-041D","EPOCH":"2026-03-09T02:11:31.125408","MEAN_MOTION":15.27562264,"ECCENTRICITY":8.558e-5,"INCLINATION":42.9991,"RA_OF_ASC_NODE":313.774,"ARG_OF_PERICENTER":184.1324,"MEAN_ANOMALY":175.9521,"EPHEMERIS_TYPE":0,"CLASSIFICATION_TYPE":"U","NORAD_CAT_ID":59077,"ELEMENT_SET_NO":999,"REV_AT_EPOCH":11423,"BSTAR":-3.9292039e-5,"MEAN_MOTION_DOT":-1.342e-5,"MEAN_MOTION_DDOT":0},{"OBJECT_NAME":"OBJECT J","OBJECT_ID":"2026-023J","EPOCH":"2026-03-09T17:10:35.014656","MEAN_MOTION":15.23262782,"ECCENTRICITY":0.00239883,"INCLINATION":96.6344,"RA_OF_ASC_NODE":144.1739,"ARG_OF_PERICENTER":114.5009,"MEAN_ANOMALY":245.8735,"EPHEMERIS_TYPE":0,"CLASSIFICATION_TYPE":"U","NORAD_CAT_ID":67682,"ELEMENT_SET_NO":999,"REV_AT_EPOCH":484,"BSTAR":0.00057379131,"MEAN_MOTION_DOT":0.00013658,"MEAN_MOTION_DDOT":0}]
